[{"OBJECT_NAME":"AMOS-17","OBJECT_ID":"2019-050A","EPOCH":"2026-03-02T17:37:06.351456","MEAN_MOTION":1.00270143,"ECCENTRICITY":0.0001653,"INCLINATION":0.0383,"RA_OF_ASC_NODE":290.8357,"ARG_OF_PERICENTER":43.0647,"MEAN_ANOMALY":107.8562,"EPHEMERIS_TYPE":0,"CLASSIFICATION_TYPE":"U","NORAD_CAT_ID":44479,"ELEMENT_SET_NO":999,"REV_AT_EPOCH":2411,"BSTAR":0,"MEAN_MOTION_DOT":9.2e-7,"MEAN_MOTION_DDOT":0}]
